[{"OBJECT_NAME":"STARLINK-32924","OBJECT_ID":"2025-037R","EPOCH":"2026-03-09T22:45:33.798240","MEAN_MOTION":14.98337023,"ECCENTRICITY":0.00028121,"INCLINATION":70.0035,"RA_OF_ASC_NODE":353.6927,"ARG_OF_PERICENTER":257.7361,"MEAN_ANOMALY":102.3483,"EPHEMERIS_TYPE":0,"CLASSIFICATION_TYPE":"U","NORAD_CAT_ID":63092,"ELEMENT_SET_NO":999,"REV_AT_EPOCH":5864,"BSTAR":0.0006750261,"MEAN_MOTION_DOT":7.972e-5,"MEAN_MOTION_DDOT":0},{"OBJECT_NAME":"PEGASUS DEB","OBJECT_ID":"1994-029AFW","EPOCH":"2026-02-14T00:16:04.061568","MEAN_MOTION":13.82605489,"ECCENTRICITY":0.05286769,"INCLINATION":82.1466,"RA_OF_ASC_NODE":310.1334,"ARG_OF_PERICENTER":353.1786,"MEAN_ANOMALY":6.236,"EPHEMERIS_TYPE":0,"CLASSIFICATION_TYPE":"U","NORAD_CAT_ID":39923,"ELEMENT_SET_NO":999,"REV_AT_EPOCH":3748,"BSTAR":0.0018125184,"MEAN_MOTION_DOT":5.863e-5,"MEAN_MOTION_DDOT":0}]
